[{"OBJECT_NAME":"QIANFAN-125","OBJECT_ID":"2026-075S","EPOCH":"2026-04-20T20:48:43.291008","MEAN_MOTION":14.23395656,"ECCENTRICITY":0.00147115,"INCLINATION":88.9908,"RA_OF_ASC_NODE":327.1774,"ARG_OF_PERICENTER":171.7053,"MEAN_ANOMALY":188.4385,"EPHEMERIS_TYPE":0,"CLASSIFICATION_TYPE":"U","NORAD_CAT_ID":68652,"ELEMENT_SET_NO":999,"REV_AT_EPOCH":189,"BSTAR":8.9617625e-5,"MEAN_MOTION_DOT":2.18e-6,"MEAN_MOTION_DDOT":0},{"OBJECT_NAME":"QIANFAN-126","OBJECT_ID":"2026-075T","EPOCH":"2026-04-20T20:46:08.812128","MEAN_MOTION":14.24950261,"ECCENTRICITY":0.00147721,"INCLINATION":88.9904,"RA_OF_ASC_NODE":327.1768,"ARG_OF_PERICENTER":170.9506,"MEAN_ANOMALY":189.1956,"EPHEMERIS_TYPE":0,"CLASSIFICATION_TYPE":"U","NORAD_CAT_ID":68653,"ELEMENT_SET_NO":999,"REV_AT_EPOCH":189,"BSTAR":0.00033195803,"MEAN_MOTION_DOT":7.91e-6,"MEAN_MOTION_DDOT":0},{"OBJECT_NAME":"HULIANWANG DIGUI-164","OBJECT_ID":"2026-076A","EPOCH":"2026-04-20T19:37:53.256000","MEAN_MOTION":13.78160704,"ECCENTRICITY":0.00014082,"INCLINATION":86.4949,"RA_OF_ASC_NODE":63.9403,"ARG_OF_PERICENTER":97.545,"MEAN_ANOMALY":262.5874,"EPHEMERIS_TYPE":0,"CLASSIFICATION_TYPE":"U","NORAD_CAT_ID":68656,"ELEMENT_SET_NO":999,"REV_AT_EPOCH":166,"BSTAR":-0.00089711781,"MEAN_MOTION_DOT":-8.85e-6,"MEAN_MOTION_DDOT":0},{"OBJECT_NAME":"HULIANWANG DIGUI-165","OBJECT_ID":"2026-076B","EPOCH":"2026-04-20T09:07:36.919488","MEAN_MOTION":13.78683947,"ECCENTRICITY":0.00014629,"INCLINATION":86.4973,"RA_OF_ASC_NODE":64.1046,"ARG_OF_PERICENTER":99.0045,"MEAN_ANOMALY":261.1285,"EPHEMERIS_TYPE":0,"CLASSIFICATION_TYPE":"U","NORAD_CAT_ID":68657,"ELEMENT_SET_NO":999,"REV_AT_EPOCH":160,"BSTAR":0.00014630429,"MEAN_MOTION_DOT":1.65e-6,"MEAN_MOTION_DDOT":0},{"OBJECT_NAME":"HULIANWANG DIGUI-166","OBJECT_ID":"2026-076C","EPOCH":"2026-04-20T09:04:19.816032","MEAN_MOTION":13.79111745,"ECCENTRICITY":0.00013461,"INCLINATION":86.4912,"RA_OF_ASC_NODE":64.0909,"ARG_OF_PERICENTER":94.6693,"MEAN_ANOMALY":265.4626,"EPHEMERIS_TYPE":0,"CLASSIFICATION_TYPE":"U","NORAD_CAT_ID":68658,"ELEMENT_SET_NO":999,"REV_AT_EPOCH":160,"BSTAR":-0.00050936764,"MEAN_MOTION_DOT":-5.03e-6,"MEAN_MOTION_DDOT":0},{"OBJECT_NAME":"HULIANWANG DIGUI-167","OBJECT_ID":"2026-076D","EPOCH":"2026-04-20T08:59:59.308800","MEAN_MOTION":13.7975982,"ECCENTRICITY":0.00013923,"INCLINATION":86.4969,"RA_OF_ASC_NODE":64.1021,"ARG_OF_PERICENTER":99.1312,"MEAN_ANOMALY":261.0011,"EPHEMERIS_TYPE":0,"CLASSIFICATION_TYPE":"U","NORAD_CAT_ID":68659,"ELEMENT_SET_NO":999,"REV_AT_EPOCH":160,"BSTAR":-6.532161e-5,"MEAN_MOTION_DOT":-5.0e-7,"MEAN_MOTION_DDOT":0},{"OBJECT_NAME":"HULIANWANG DIGUI-168","OBJECT_ID":"2026-076E","EPOCH":"2026-04-20T08:56:05.010144","MEAN_MOTION":13.80317283,"ECCENTRICITY":0.00014118,"INCLINATION":86.4949,"RA_OF_ASC_NODE":64.0963,"ARG_OF_PERICENTER":95.4319,"MEAN_ANOMALY":264.7008,"EPHEMERIS_TYPE":0,"CLASSIFICATION_TYPE":"U","NORAD_CAT_ID":68660,"ELEMENT_SET_NO":999,"REV_AT_EPOCH":159,"BSTAR":-0.00062239783,"MEAN_MOTION_DOT":-6.32e-6,"MEAN_MOTION_DDOT":0},{"OBJECT_NAME":"GUOWANG TEST OBJECT A","OBJECT_ID":"2026-078A","EPOCH":"2026-04-20T22:54:15.117696","MEAN_MOTION":13.68815019,"ECCENTRICITY":0.00081016,"INCLINATION":86.4975,"RA_OF_ASC_NODE":302.4596,"ARG_OF_PERICENTER":255.1294,"MEAN_ANOMALY":104.8969,"EPHEMERIS_TYPE":0,"CLASSIFICATION_TYPE":"U","NORAD_CAT_ID":68687,"ELEMENT_SET_NO":999,"REV_AT_EPOCH":128,"BSTAR":0.0002804949,"MEAN_MOTION_DOT":2.58e-6,"MEAN_MOTION_DDOT":0},{"OBJECT_NAME":"CYGNUS NG-24","OBJECT_ID":"2026-079A","EPOCH":"2026-04-20T18:43:46.346592","MEAN_MOTION":15.48857372,"ECCENTRICITY":0.00067015,"INCLINATION":51.6325,"RA_OF_ASC_NODE":224.2241,"ARG_OF_PERICENTER":330.9223,"MEAN_ANOMALY":29.1391,"EPHEMERIS_TYPE":0,"CLASSIFICATION_TYPE":"U","NORAD_CAT_ID":68689,"ELEMENT_SET_NO":999,"REV_AT_EPOCH":142,"BSTAR":0.00018579997,"MEAN_MOTION_DOT":9.753e-5,"MEAN_MOTION_DDOT":0},{"OBJECT_NAME":"JILIN GAOFEN OBJECT A","OBJECT_ID":"2026-080A","EPOCH":"2026-04-19T17:13:37.278912","MEAN_MOTION":15.08316877,"ECCENTRICITY":0.00105101,"INCLINATION":97.6642,"RA_OF_ASC_NODE":185.3455,"ARG_OF_PERICENTER":261.5316,"MEAN_ANOMALY":98.4721,"EPHEMERIS_TYPE":0,"CLASSIFICATION_TYPE":"U","NORAD_CAT_ID":68691,"ELEMENT_SET_NO":999,"REV_AT_EPOCH":84,"BSTAR":1.7305389e-5,"MEAN_MOTION_DOT":2.04e-6,"MEAN_MOTION_DDOT":0},{"OBJECT_NAME":"JILIN GAOFEN OBJECT B","OBJECT_ID":"2026-080B","EPOCH":"2026-04-16T22:20:16.196064","MEAN_MOTION":15.09268839,"ECCENTRICITY":0.00140201,"INCLINATION":97.662,"RA_OF_ASC_NODE":182.5721,"ARG_OF_PERICENTER":270.2297,"MEAN_ANOMALY":89.7325,"EPHEMERIS_TYPE":0,"CLASSIFICATION_TYPE":"U","NORAD_CAT_ID":68692,"ELEMENT_SET_NO":999,"REV_AT_EPOCH":42,"BSTAR":0.00014838883,"MEAN_MOTION_DOT":2.302e-5,"MEAN_MOTION_DDOT":0},{"OBJECT_NAME":"JILIN GAOFEN OBJECT C","OBJECT_ID":"2026-080C","EPOCH":"2026-04-19T01:15:18.825408","MEAN_MOTION":15.09281899,"ECCENTRICITY":0.00140837,"INCLINATION":97.6618,"RA_OF_ASC_NODE":184.6919,"ARG_OF_PERICENTER":261.8747,"MEAN_ANOMALY":98.0884,"EPHEMERIS_TYPE":0,"CLASSIFICATION_TYPE":"U","NORAD_CAT_ID":68693,"ELEMENT_SET_NO":999,"REV_AT_EPOCH":74,"BSTAR":2.1875792e-5,"MEAN_MOTION_DOT":2.84e-6,"MEAN_MOTION_DDOT":0}]
