QIANFAN-125             
1 68652U 26075S   26110.86716772  .00000218  00000+0  89618-4 0  9997
2 68652  88.9908 327.1774 0014711 171.7053 188.4385 14.23395656  1899
QIANFAN-126             
1 68653U 26075T   26110.86537977  .00000791  00000+0  33196-3 0  9991
2 68653  88.9904 327.1768 0014772 170.9506 189.1956 14.24950261  1892
HULIANWANG DIGUI-164    
1 68656U 26076A   26110.81797750 -.00000885  00000+0 -89712-3 0  9998
2 68656  86.4949  63.9403 0001408  97.5450 262.5874 13.78160704  1665
HULIANWANG DIGUI-165    
1 68657U 26076B   26110.38028842  .00000165  00000+0  14630-3 0  9996
2 68657  86.4973  64.1046 0001462  99.0045 261.1285 13.78683947  1600
HULIANWANG DIGUI-166    
1 68658U 26076C   26110.37800713 -.00000503  00000+0 -50937-3 0  9999
2 68658  86.4912  64.0909 0001346  94.6693 265.4626 13.79111745  1601
HULIANWANG DIGUI-167    
1 68659U 26076D   26110.37499200 -.00000050  00000+0 -65322-4 0  9997
2 68659  86.4969  64.1021 0001392  99.1312 261.0011 13.79759820  1601
HULIANWANG DIGUI-168    
1 68660U 26076E   26110.37228021 -.00000632  00000+0 -62240-3 0  9991
2 68660  86.4949  64.0963 0001411  95.4319 264.7008 13.80317283  1592
GUOWANG TEST OBJECT A   
1 68687U 26078A   26110.95434164  .00000258  00000+0  28049-3 0  9994
2 68687  86.4975 302.4596 0008101 255.1294 104.8969 13.68815019  1283
CYGNUS NG-24            
1 68689U 26079A   26110.78039753  .00009753  00000+0  18580-3 0  9991
2 68689  51.6325 224.2241 0006701 330.9223  29.1391 15.48857372  1426
JILIN GAOFEN OBJECT A   
1 68691U 26080A   26109.71779258  .00000204  00000+0  17305-4 0  9995
2 68691  97.6642 185.3455 0010510 261.5316  98.4721 15.08316877   847
JILIN GAOFEN OBJECT B   
1 68692U 26080B   26106.93074301  .00002302  00000+0  14839-3 0  9993
2 68692  97.6620 182.5721 0014020 270.2297  89.7325 15.09268839   426
JILIN GAOFEN OBJECT C   
1 68693U 26080C   26109.05230122  .00000284  00000+0  21876-4 0  9992
2 68693  97.6618 184.6919 0014083 261.8747  98.0884 15.09281899   740
